{"type": "FeatureCollection", "features": [ {"type": "Feature", "properties": {"norad_id": 34529, "name": "IRIDIUM 33 DEB", "group": "iridium-33-debris", "lat": 80.62006134020059, "lon": -162.8898474823813, "alt_km": 750.2922354106777, "timestamp": "2025-12-02T13:52:17.646224+00:00", "meta": {"OBJECT_NAME": "IRIDIUM 33 DEB", "OBJECT_ID": "1997-051HW", "EPOCH": "2025-12-02T05:04:47.827488", "MEAN_MOTION": 14.40602181, "ECCENTRICITY": 0.0003559, "INCLINATION": 86.365, "RA_OF_ASC_NODE": 39.8992, "ARG_OF_PERICENTER": 215.6706, "MEAN_ANOMALY": 144.4256, "EPHEMERIS_TYPE": 0, "CLASSIFICATION_TYPE": "U", "NORAD_CAT_ID": 34529, "ELEMENT_SET_NO": 999, "REV_AT_EPOCH": 87990, "BSTAR": 0.00016931279, "MEAN_MOTION_DOT": 5.59e-06, "MEAN_MOTION_DDOT": 0}, "tle": {"line1": "1 34529U 97051HW  25336.21166467  .00000559  00000+0  16931-3 0  9998", "line2": "2 34529  86.3650  39.8992 0003559 215.6706 144.4256 14.40602181879908"}}, "geometry": {"type": "Point", "coordinates": [-162.8898474823813, 80.62006134020059]}}, {"type": "Feature", "properties": {"norad_id": 34538, "name": "IRIDIUM 33 DEB", "group": "iridium-33-debris", "lat": -42.709674108016095, "lon": -166.54887387081195, "alt_km": 775.2446723849143, "timestamp": "2025-12-02T13:52:17.646234+00:00", "meta": {"OBJECT_NAME": "IRIDIUM 33 DEB", "OBJECT_ID": "1997-051JF", "EPOCH": "2025-12-02T03:08:34.535328", "MEAN_MOTION": 14.42546376, "ECCENTRICITY": 0.00341464, "INCLINATION": 86.2785, "RA_OF_ASC_NODE": 10.2023, "ARG_OF_PERICENTER": 3.5659, "MEAN_ANOMALY": 59.4066, "EPHEMERIS_TYPE": 0, "CLASSIFICATION_TYPE": "U", "NORAD_CAT_ID": 34538, "ELEMENT_SET_NO": 999, "REV_AT_EPOCH": 87603, "BSTAR": 0.0010217292, "MEAN_MOTION_DOT": 3.431e-05, "MEAN_MOTION_DDOT": 0}, "tle": {"line1": "1 34538U 97051JF  25336.13095527  .00003431  00000+0  10217-2 0  9999", "line2": "2 34538  86.2785  10.2023 0034146   3.5659  59.4066 14.42546376876031"}}, "geometry": {"type": "Point", "coordinates": [-166.54887387081195, -42.709674108016095]}}, {"type": "Feature", "properties": {"norad_id": 34540, "name": "IRIDIUM 33 DEB", "group": "iridium-33-debris", "lat": 7.6887092982948175, "lon": 131.75283856260015, "alt_km": 637.9613723383873, "timestamp": "2025-12-02T13:52:17.646245+00:00", "meta": {"OBJECT_NAME": "IRIDIUM 33 DEB", "OBJECT_ID": "1997-051JH", "EPOCH": "2025-12-02T05:01:47.712864", "MEAN_MOTION": 14.74951489, "ECCENTRICITY": 0.00146572, "INCLINATION": 86.3092, "RA_OF_ASC_NODE": 312.4205, "ARG_OF_PERICENTER": 198.0634, "MEAN_ANOMALY": 179.3079, "EPHEMERIS_TYPE": 0, "CLASSIFICATION_TYPE": "U", "NORAD_CAT_ID": 34540, "ELEMENT_SET_NO": 999, "REV_AT_EPOCH": 88866, "BSTAR": 0.0019621235, "MEAN_MOTION_DOT": 0.00013238, "MEAN_MOTION_DDOT": 0}, "tle": {"line1": "1 34540U 97051JH  25336.20958001  .00013238  00000+0  19621-2 0  9999", "line2": "2 34540  86.3092 312.4205 0014657 198.0634 179.3079 14.74951489888661"}}, "geometry": {"type": "Point", "coordinates": [131.75283856260015, 7.6887092982948175]}}, {"type": "Feature", "properties": {"norad_id": 34648, "name": "IRIDIUM 33 DEB", "group": "iridium-33-debris", "lat": 45.5433275601452, "lon": 102.35821508284918, "alt_km": 982.1507788944937, "timestamp": "2025-12-02T13:52:17.646255+00:00", "meta": {"OBJECT_NAME": "IRIDIUM 33 DEB", "OBJECT_ID": "1997-051JZ", "EPOCH": "2025-12-01T03:11:38.418720", "MEAN_MOTION": 14.1087899, "ECCENTRICITY": 0.01868529, "INCLINATION": 86.3903, "RA_OF_ASC_NODE": 286.6295, "ARG_OF_PERICENTER": 334.6513, "MEAN_ANOMALY": 24.5588, "EPHEMERIS_TYPE": 0, "CLASSIFICATION_TYPE": "U", "NORAD_CAT_ID": 34648, "ELEMENT_SET_NO": 999, "REV_AT_EPOCH": 84797, "BSTAR": 0.0079356223, "MEAN_MOTION_DOT": 0.00016788, "MEAN_MOTION_DDOT": 0}, "tle": {"line1": "1 34648U 97051JZ  25335.13308355  .00016788  00000+0  79356-2 0  9994", "line2": "2 34648  86.3903 286.6295 0186852 334.6513  24.5588 14.10878990847973"}}, "geometry": {"type": "Point", "coordinates": [102.35821508284918, 45.5433275601452]}}, {"type": "Feature", "properties": {"norad_id": 34651, "name": "IRIDIUM 33 DEB", "group": "iridium-33-debris", "lat": 24.38036094666174, "lon": 146.58591348084158, "alt_km": 892.395714545828, "timestamp": "2025-12-02T13:52:17.646265+00:00", "meta": {"OBJECT_NAME": "IRIDIUM 33 DEB", "OBJECT_ID": "1997-051KC", "EPOCH": "2025-12-02T05:19:54.207552", "MEAN_MOTION": 14.25531146, "ECCENTRICITY": 0.01418616, "INCLINATION": 86.2826, "RA_OF_ASC_NODE": 145.0488, "ARG_OF_PERICENTER": 237.4272, "MEAN_ANOMALY": 121.3155, "EPHEMERIS_TYPE": 0, "CLASSIFICATION_TYPE": "U", "NORAD_CAT_ID": 34651, "ELEMENT_SET_NO": 999, "REV_AT_EPOCH": 85746, "BSTAR": 0.0036308406, "MEAN_MOTION_DOT": 9.56e-05, "MEAN_MOTION_DDOT": 0}, "tle": {"line1": "1 34651U 97051KC  25336.22215518  .00009560  00000+0  36308-2 0  9997", "line2": "2 34651  86.2826 145.0488 0141861 237.4272 121.3155 14.25531146857461"}}, "geometry": {"type": "Point", "coordinates": [146.58591348084158, 24.38036094666174]}}, {"type": "Feature", "properties": {"norad_id": 34652, "name": "IRIDIUM 33 DEB", "group": "iridium-33-debris", "lat": -8.721649344008057, "lon": 165.09062236730122, "alt_km": 707.0835911972526, "timestamp": "2025-12-02T13:52:17.646275+00:00", "meta": {"OBJECT_NAME": "IRIDIUM 33 DEB", "OBJECT_ID": "1997-051KD", "EPOCH": "2025-12-02T00:00:47.418048", "MEAN_MOTION": 14.61892089, "ECCENTRICITY": 0.00271082, "INCLINATION": 86.3315, "RA_OF_ASC_NODE": 344.7836, "ARG_OF_PERICENTER": 336.6738, "MEAN_ANOMALY": 55.158, "EPHEMERIS_TYPE": 0, "CLASSIFICATION_TYPE": "U", "NORAD_CAT_ID": 34652, "ELEMENT_SET_NO": 999, "REV_AT_EPOCH": 88327, "BSTAR": 0.0011175058, "MEAN_MOTION_DOT": 5.639e-05, "MEAN_MOTION_DDOT": 0}, "tle": {"line1": "1 34652U 97051KD  25336.00054882  .00005639  00000+0  11175-2 0  9997", "line2": "2 34652  86.3315 344.7836 0027108 336.6738  55.1580 14.61892089883277"}}, "geometry": {"type": "Point", "coordinates": [165.09062236730122, -8.721649344008057]}}, {"type": "Feature", "properties": {"norad_id": 34690, "name": "IRIDIUM 33 DEB", "group": "iridium-33-debris", "lat": -55.747657070235476, "lon": 36.07195740593215, "alt_km": 719.8946953274835, "timestamp": "2025-12-02T13:52:17.646286+00:00", "meta": {"OBJECT_NAME": "IRIDIUM 33 DEB", "OBJECT_ID": "1997-051KM", "EPOCH": "2025-11-30T04:29:28.709376", "MEAN_MOTION": 14.55018885, "ECCENTRICITY": 0.00120076, "INCLINATION": 86.3793, "RA_OF_ASC_NODE": 42.4459, "ARG_OF_PERICENTER": 66.3956, "MEAN_ANOMALY": 322.5053, "EPHEMERIS_TYPE": 0, "CLASSIFICATION_TYPE": "U", "NORAD_CAT_ID": 34690, "ELEMENT_SET_NO": 999, "REV_AT_EPOCH": 87912, "BSTAR": 0.00049664139, "MEAN_MOTION_DOT": 2.161e-05, "MEAN_MOTION_DDOT": 0}, "tle": {"line1": "1 34690U 97051KM  25334.18713784  .00002161  00000+0  49664-3 0  9991", "line2": "2 34690  86.3793  42.4459 0012007  66.3956 322.5053 14.55018885879125"}}, "geometry": {"type": "Point", "coordinates": [36.07195740593215, -55.747657070235476]}}, {"type": "Feature", "properties": {"norad_id": 34693, "name": "IRIDIUM 33 DEB", "group": "iridium-33-debris", "lat": -82.84162311986644, "lon": -82.10862681281958, "alt_km": 509.8489040190807, "timestamp": "2025-12-02T13:52:17.646296+00:00", "meta": {"OBJECT_NAME": "IRIDIUM 33 DEB", "OBJECT_ID": "1997-051KQ", "EPOCH": "2025-12-02T05:02:44.336832", "MEAN_MOTION": 15.24289177, "ECCENTRICITY": 0.0016139, "INCLINATION": 86.305, "RA_OF_ASC_NODE": 309.0413, "ARG_OF_PERICENTER": 69.1334, "MEAN_ANOMALY": 350.4377, "EPHEMERIS_TYPE": 0, "CLASSIFICATION_TYPE": "U", "NORAD_CAT_ID": 34693, "ELEMENT_SET_NO": 999, "REV_AT_EPOCH": 88754, "BSTAR": 0.0049862135, "MEAN_MOTION_DOT": 0.00124045, "MEAN_MOTION_DDOT": 0}, "tle": {"line1": "1 34693U 97051KQ  25336.21023538  .00124045  00000+0  49862-2 0  9996", "line2": "2 34693  86.3050 309.0413 0016139  69.1334 350.4377 15.24289177887542"}}, "geometry": {"type": "Point", "coordinates": [-82.10862681281958, -82.84162311986644]}}, {"type": "Feature", "properties": {"norad_id": 34696, "name": "IRIDIUM 33 DEB", "group": "iridium-33-debris", "lat": 85.92794286559271, "lon": 142.67952782392905, "alt_km": 690.4740706898492, "timestamp": "2025-12-02T13:52:17.646306+00:00", "meta": {"OBJECT_NAME": "IRIDIUM 33 DEB", "OBJECT_ID": "1997-051KT", "EPOCH": "2025-12-01T15:05:30.511104", "MEAN_MOTION": 14.64076144, "ECCENTRICITY": 0.0075021, "INCLINATION": 86.1859, "RA_OF_ASC_NODE": 32.6869, "ARG_OF_PERICENTER": 205.0419, "MEAN_ANOMALY": 287.6306, "EPHEMERIS_TYPE": 0, "CLASSIFICATION_TYPE": "U", "NORAD_CAT_ID": 34696, "ELEMENT_SET_NO": 999, "REV_AT_EPOCH": 86510, "BSTAR": 0.0055989172, "MEAN_MOTION_DOT": 0.00030736, "MEAN_MOTION_DDOT": 0}, "tle": {"line1": "1 34696U 97051KT  25335.62882536  .00030736  00000+0  55989-2 0  9994", "line2": "2 34696  86.1859  32.6869 0075021 205.0419 287.6306 14.64076144865106"}}, "geometry": {"type": "Point", "coordinates": [142.67952782392905, 85.92794286559271]}}, {"type": "Feature", "properties": {"norad_id": 34765, "name": "IRIDIUM 33 DEB", "group": "iridium-33-debris", "lat": 32.928437571477836, "lon": -145.2543480984379, "alt_km": 757.2059772734283, "timestamp": "2025-12-02T13:52:17.646316+00:00", "meta": {"OBJECT_NAME": "IRIDIUM 33 DEB", "OBJECT_ID": "1997-051LJ", "EPOCH": "2025-12-02T05:08:41.186976", "MEAN_MOTION": 14.40418764, "ECCENTRICITY": 0.00145508, "INCLINATION": 86.3401, "RA_OF_ASC_NODE": 37.2773, "ARG_OF_PERICENTER": 249.3549, "MEAN_ANOMALY": 173.3707, "EPHEMERIS_TYPE": 0, "CLASSIFICATION_TYPE": "U", "NORAD_CAT_ID": 34765, "ELEMENT_SET_NO": 999, "REV_AT_EPOCH": 87462, "BSTAR": 0.00049787542, "MEAN_MOTION_DOT": 1.602e-05, "MEAN_MOTION_DDOT": 0}, "tle": {"line1": "1 34765U 97051LJ  25336.21436559  .00001602  00000+0  49788-3 0  9998", "line2": "2 34765  86.3401  37.2773 0014550 249.3549 173.3707 14.40418764874623"}}, "geometry": {"type": "Point", "coordinates": [-145.2543480984379, 32.928437571477836]}}]}